     3.04           N: GNSS NAV DATA    M: MIXED            RINEX VERSION / TYPE
sbf2rin-15.10.3                         20260301 002442 UTC PGM / RUN BY / DATE 
GPSA   2.0489E-08  0.0000E+00 -1.1921E-07  1.1921E-07       IONOSPHERIC CORR    
GPSB   1.2902E+05 -3.2768E+04 -6.5536E+04 -3.2768E+05       IONOSPHERIC CORR    
GAL    1.2800E+02 -1.4062E-01  1.5564E-03  0.0000E+00       IONOSPHERIC CORR    
                                                            COMMENT             
                                                            COMMENT             
                                                            COMMENT             
                                                            COMMENT             
This data is provided as a public service by NASA/JPL.      COMMENT
No warranty is expressed or implied regarding suitability   COMMENT
for use.  For further information, contact:                 COMMENT
ggnops at jpl dot nasa dot gov                              COMMENT
                                                            END OF HEADER       
G28 2026 02 28 08 00 00-5.874349735677E-04 7.162270776462E-12 0.000000000000E+00
     1.500000000000E+02-2.996875000000E+01 4.388039922333E-09 7.658019119806E-01
    -1.488253474236E-06 4.180718678981E-04 1.143105328083E-05 5.153796548843E+03
     5.472000000000E+05-3.725290298462E-08 1.682615605408E-02-5.587935447693E-09
     9.623231730800E-01 1.564687500000E+02 4.744202369357E-02-7.818182801552E-09
     3.803729869188E-10 1.000000000000E+00 2.407000000000E+03 0.000000000000E+00
     2.000000000000E+00 0.000000000000E+00-9.778887033463E-09 4.060000000000E+02
     5.400180000000E+05 4.000000000000E+00
G18 2026 02 28 08 00 00-4.139211960137E-04 9.549694368616E-12 0.000000000000E+00
     1.020000000000E+02 1.087187500000E+02 3.956950537158E-09 1.248363146124E+00
     5.697831511497E-06 5.741178058088E-03 8.741393685341E-06 5.153641565323E+03
     5.472000000000E+05-8.568167686462E-08-3.078214403483E+00 9.872019290924E-08
     9.721978803555E-01 2.175312500000E+02-2.862821835632E+00-7.806039438590E-09
     4.857345185067E-11 1.000000000000E+00 2.407000000000E+03 0.000000000000E+00
     2.000000000000E+00 0.000000000000E+00-8.381903171539E-09 3.580000000000E+02
     5.400180000000E+05 4.000000000000E+00
G02 2026 02 28 08 00 00 4.784250631928E-05 7.958078640513E-12 0.000000000000E+00
     5.600000000000E+01 1.374375000000E+02 3.956950537158E-09-2.664870377542E+00
     7.223337888718E-06 1.692330033984E-02 1.021288335323E-05 5.153603090286E+03
     5.472000000000E+05 0.000000000000E+00 3.097035384389E+00 2.440065145493E-07
     9.636410282025E-01 1.791250000000E+02-8.148523994732E-01-7.604602476503E-09
     8.857511808063E-11 1.000000000000E+00 2.407000000000E+03 0.000000000000E+00
     2.000000000000E+00 0.000000000000E+00-1.769512891769E-08 5.600000000000E+01
     5.400180000000E+05 4.000000000000E+00
G15 2026 02 28 08 00 00 3.899317234755E-04 3.410605131648E-12 0.000000000000E+00
     6.100000000000E+01-1.187500000000E+02 4.962706716655E-09 2.310653009207E+00
    -6.336718797684E-06 1.661469344981E-02 4.230067133904E-06 5.153701267242E+03
     5.472000000000E+05 1.750886440277E-07-1.174202395409E+00-1.676380634308E-07
     9.424660292417E-01 2.874687500000E+02 1.500060293635E+00-8.159268437710E-09
    -2.214377952016E-10 1.000000000000E+00 2.407000000000E+03 0.000000000000E+00
     2.000000000000E+00 0.000000000000E+00-1.117587089539E-08 6.100000000000E+01
     5.400180000000E+05 4.000000000000E+00
G24 2026 02 28 07 59 44-1.027071848512E-04 1.625721779419E-11 0.000000000000E+00
     3.000000000000E+00-4.584375000000E+01 5.000208278745E-09 1.457762349265E+00
    -2.453103661537E-06 1.789823535364E-02 1.158006489277E-05 5.153657541275E+03
     5.471840000000E+05-4.637986421585E-07-6.582261066737E-02-2.291053533554E-07
     9.353747679193E-01 1.482187500000E+02 1.134714144667E+00-8.251057975398E-09
     3.271564845236E-10 1.000000000000E+00 2.407000000000E+03 0.000000000000E+00
     2.000000000000E+00 0.000000000000E+00 2.328306436539E-09 3.000000000000E+00
     5.409780000000E+05 4.000000000000E+00
G31 2026 02 28 08 00 00-1.643844880164E-04 2.160049916711E-12 0.000000000000E+00
     1.800000000000E+01-1.962500000000E+01 4.627335604244E-09-6.202313958129E-01
    -9.275972843170E-07 1.086760486942E-02 1.128204166889E-05 5.153570714951E+03
     5.472000000000E+05-4.470348358154E-08 6.678855060550E-02 2.253800630569E-07
     9.551407529433E-01 1.598437500000E+02 9.341422916217E-01-8.068193215490E-09
     4.078741324519E-10 1.000000000000E+00 2.407000000000E+03 0.000000000000E+00
     2.000000000000E+00 0.000000000000E+00-1.350417733192E-08 1.800000000000E+01
     5.413080000000E+05 4.000000000000E+00
G01 2026 02 28 08 00 00 3.254013136029E-04-5.911715561524E-12 0.000000000000E+00
     4.000000000000E+01 1.359062500000E+02 4.278035340201E-09 2.169362627072E+00
     6.934627890587E-06 1.565541955642E-03 8.711591362953E-06 5.153631542206E+03
     5.472000000000E+05 5.587935447693E-09-3.023695877847E+00 5.587935447693E-09
     9.583486075234E-01 2.071562500000E+02 6.954404019413E-02-8.026762918323E-09
     1.942938074027E-10 1.000000000000E+00 2.407000000000E+03 0.000000000000E+00
     2.000000000000E+00 0.000000000000E+00-9.313225746155E-09 8.080000000000E+02
     5.423280000000E+05 4.000000000000E+00
G26 2026 02 28 08 00 00-3.336262889206E-04-5.456968210638E-12 0.000000000000E+00
     4.100000000000E+01 2.387500000000E+01 5.631305995070E-09-1.135379602695E+00
     1.290813088417E-06 1.099779154174E-02 5.513429641724E-06 5.153707332611E+03
     5.472000000000E+05 2.961605787277E-07 9.918718449065E-01 7.078051567078E-08
     9.281468334754E-01 2.550312500000E+02 7.089719830946E-01-8.531783954476E-09
     1.032185851827E-10 1.000000000000E+00 2.407000000000E+03 0.000000000000E+00
     2.000000000000E+00 0.000000000000E+00 6.519258022308E-09 4.100000000000E+01
     5.447160000000E+05 4.000000000000E+00
G03 2026 02 28 07 59 44 5.555138923228E-04-1.216449163621E-11 0.000000000000E+00
     1.600000000000E+01 2.806250000000E+01 4.174816755018E-09 1.998825933409E-02
     1.281499862671E-06 6.473644985817E-03 1.277774572372E-06 5.153625717163E+03
     5.471840000000E+05-8.195638656616E-08-2.036913663916E+00 7.636845111847E-08
     9.931265005051E-01 3.759062500000E+02 1.201905685316E+00-8.332132781060E-09
     2.078658013021E-10 1.000000000000E+00 2.407000000000E+03 0.000000000000E+00
     2.000000000000E+00 0.000000000000E+00 1.396983861923E-09 1.600000000000E+01
     5.471580000000E+05 4.000000000000E+00
G28 2026 02 28 10 00 00-5.873832851648E-04 7.162270776462E-12 0.000000000000E+00
     1.510000000000E+02-2.731250000000E+01 4.446256633007E-09 1.816068118664E+00
    -1.262873411179E-06 4.182648845017E-04 1.154094934464E-05 5.153796533585E+03
     5.544000000000E+05-5.587935447693E-09 1.676961719615E-02 1.676380634308E-08
     9.623260111410E-01 1.579687500000E+02 4.728074867868E-02-7.831040479983E-09
     4.135886561991E-10 1.000000000000E+00 2.407000000000E+03 0.000000000000E+00
     2.000000000000E+00 0.000000000000E+00-9.778887033463E-09 4.070000000000E+02
     5.472180000000E+05 4.000000000000E+00
G32 2026 02 28 10 00 00-7.170392200351E-05 1.830358087318E-11 0.000000000000E+00
     9.800000000000E+01-1.187812500000E+02 4.481615248692E-09-1.247203599219E+00
    -5.962327122688E-06 9.331942419522E-03 6.640329957008E-06 5.153732694626E+03
     5.544000000000E+05 7.823109626770E-08-1.013236340035E+00 2.216547727585E-07
     9.677103484260E-01 2.530625000000E+02-1.999781536368E+00-8.096408676491E-09
    -1.460775132862E-10 1.000000000000E+00 2.407000000000E+03 0.000000000000E+00
     2.800000000000E+00 0.000000000000E+00 9.313225746155E-10 9.800000000000E+01
     5.472180000000E+05 4.000000000000E+00
G25 2026 02 28 10 00 00 4.405225627124E-04-2.614797267597E-12 0.000000000000E+00
     2.200000000000E+01 2.106250000000E+01 5.378795476993E-09 7.355001562595E-01
     1.166015863419E-06 1.293499046005E-02 5.748122930527E-06 5.153717081070E+03
     5.544000000000E+05-1.303851604462E-07 1.066315613217E+00 9.685754776001E-08
     9.473234717108E-01 2.633437500000E+02 1.157101797386E+00-8.631430962317E-09
     3.464430021702E-11 1.000000000000E+00 2.407000000000E+03 0.000000000000E+00
     2.000000000000E+00 0.000000000000E+00 5.587935447693E-09 2.200000000000E+01
     5.472180000000E+05 4.000000000000E+00
G10 2026 02 28 10 00 00-5.895346403122E-04-9.094947017729E-13 0.000000000000E+00
     4.500000000000E+01 2.643750000000E+01 4.057669018202E-09 8.138116283495E-02
     1.424923539162E-06 1.094234234188E-02 1.933425664902E-06 5.153647626877E+03
     5.544000000000E+05-2.421438694000E-08-2.039482896237E+00 1.695007085800E-07
     9.926659358578E-01 3.610312500000E+02-2.254844915433E+00-8.270344493045E-09
     2.107230631757E-10 1.000000000000E+00 2.407000000000E+03 0.000000000000E+00
     2.000000000000E+00 0.000000000000E+00 2.328306436539E-09 4.500000000000E+01
     5.472180000000E+05 4.000000000000E+00
G31 2026 02 28 10 00 00-1.643686555326E-04 2.160049916711E-12 0.000000000000E+00
     4.000000000000E+01-1.875000000000E+01 4.663765693132E-09 4.300160270021E-01
    -7.636845111847E-07 1.086772792041E-02 1.131929457188E-05 5.153570955276E+03
     5.544000000000E+05-1.415610313416E-07 6.673033963221E-02 1.303851604462E-07
     9.551436158740E-01 1.600312500000E+02 9.341395545020E-01-8.085693944465E-09
     3.768014095769E-10 1.000000000000E+00 2.407000000000E+03 0.000000000000E+00
     2.000000000000E+00 0.000000000000E+00-1.350417733192E-08 4.000000000000E+01
     5.472180000000E+05 4.000000000000E+00
